[{"OBJECT_NAME":"STARLINK-11344 [DTC]","OBJECT_ID":"2024-195B","EPOCH":"2026-03-09T21:45:12.976416","MEAN_MOTION":15.69702277,"ECCENTRICITY":0.00014029,"INCLINATION":53.1617,"RA_OF_ASC_NODE":25.4885,"ARG_OF_PERICENTER":50.2119,"MEAN_ANOMALY":309.9022,"EPHEMERIS_TYPE":0,"CLASSIFICATION_TYPE":"U","NORAD_CAT_ID":61688,"ELEMENT_SET_NO":999,"REV_AT_EPOCH":7906,"BSTAR":-3.020444e-6,"MEAN_MOTION_DOT":-9.55e-6,"MEAN_MOTION_DDOT":0},{"OBJECT_NAME":"CZ-2F DEB","OBJECT_ID":"2026-024D","EPOCH":"2026-03-09T22:29:00.721824","MEAN_MOTION":15.26264439,"ECCENTRICITY":0.02293172,"INCLINATION":50.3196,"RA_OF_ASC_NODE":17.4686,"ARG_OF_PERICENTER":280.8979,"MEAN_ANOMALY":76.6257,"EPHEMERIS_TYPE":0,"CLASSIFICATION_TYPE":"U","NORAD_CAT_ID":67692,"ELEMENT_SET_NO":999,"REV_AT_EPOCH":466,"BSTAR":0.0047386771,"MEAN_MOTION_DOT":0.00280979,"MEAN_MOTION_DDOT":0}]
